[
    {
        "Altitude(m)": 707178.9464353508,
        "Argument of Periapsis(deg)": 0.0,
        "Eccentricity": 0.0,
        "Inclination(deg)": 45.0,
        "Latitude(deg)": 44.57280216045597,
        "Longitude(deg)": -168.46362042018941,
        "Mean Anomaly(deg)": 98.18179999999997,
        "RAAN(deg)": 190.0,
        "Satellite Name": "Constellation 1 842",
        "Satellite Number": 842,
        "Semi-Major Axis(m)": 7083131.272910544,
        "Time(s)": 0
    },
    {
        "Altitude(m)": 707177.010270927,
        "Argument of Periapsis(deg)": 5.994800624540561e-05,
        "Eccentricity": 0.0,
        "Inclination(deg)": 45.0,
        "Latitude(deg)": 44.56419132603664,
        "Longitude(deg)": -168.38355866510366,
        "Mean Anomaly(deg)": 98.2425011402499,
        "RAAN(deg)": 189.99994341083445,
        "Satellite Name": "Constellation 1 842",
        "Satellite Number": 842,
        "Semi-Major Axis(m)": 7083131.272910544,
        "Time(s)": 1
    },
    {
        "Altitude(m)": 707175.0602477815,
        "Argument of Periapsis(deg)": 0.00011989601249081122,
        "Eccentricity": 0.0,
        "Inclination(deg)": 45.0,
        "Latitude(deg)": 44.55551849249737,
        "Longitude(deg)": -168.30352181116388,
        "Mean Anomaly(deg)": 98.3032022804998,
        "RAAN(deg)": 189.99988682166887,
        "Satellite Name": "Constellation 1 842",
        "Satellite Number": 842,
        "Semi-Major Axis(m)": 7083131.272910544,
        "Time(s)": 2
    },
    {
        "Altitude(m)": 707173.0963773857,
        "Argument of Periapsis(deg)": 0.00017984401873621686,
        "Eccentricity": 0.0,
        "Inclination(deg)": 45.0,
        "Latitude(deg)": 44.54678369666074,
        "Longitude(deg)": -168.22351002190103,
        "Mean Anomaly(deg)": 98.36390342074971,
        "RAAN(deg)": 189.9998302325033,
        "Satellite Name": "Constellation 1 842",
        "Satellite Number": 842,
        "Semi-Major Axis(m)": 7083131.272910544,
        "Time(s)": 3
    },
    {
        "Altitude(m)": 707171.1186712965,
        "Argument of Periapsis(deg)": 0.00023979202498162244,
        "Eccentricity": 0.0,
        "Inclination(deg)": 45.0,
        "Latitude(deg)": 44.537986975584644,
        "Longitude(deg)": -168.14352346042855,
        "Mean Anomaly(deg)": 98.42460456099961,
        "RAAN(deg)": 189.9997736433377,
        "Satellite Name": "Constellation 1 842",
        "Satellite Number": 842,
        "Semi-Major Axis(m)": 7083131.272910544,
        "Time(s)": 4
    },
    {
        "Altitude(m)": 707169.1271411503,
        "Argument of Periapsis(deg)": 0.00029974003122702807,
        "Eccentricity": 0.0,
        "Inclination(deg)": 45.0,
        "Latitude(deg)": 44.529128366561565,
        "Longitude(deg)": -168.06356228944,
        "Mean Anomaly(deg)": 98.48530570124944,
        "RAAN(deg)": 189.99971705417215,
        "Satellite Name": "Constellation 1 842",
        "Satellite Number": 842,
        "Semi-Major Axis(m)": 7083131.272910544,
        "Time(s)": 5
    },
    {
        "Altitude(m)": 707167.1217986607,
        "Argument of Periapsis(deg)": 0.00035968803747243373,
        "Eccentricity": 0.0,
        "Inclination(deg)": 45.0,
        "Latitude(deg)": 44.520207907117744,
        "Longitude(deg)": -167.98362667120617,
        "Mean Anomaly(deg)": 98.54600684149938,
        "RAAN(deg)": 189.9996604650066,
        "Satellite Name": "Constellation 1 842",
        "Satellite Number": 842,
        "Semi-Major Axis(m)": 7083131.272910544,
        "Time(s)": 6
    },
    {
        "Altitude(m)": 707165.102655635,
        "Argument of Periapsis(deg)": 0.00041963604371783933,
        "Eccentricity": 0.0,
        "Inclination(deg)": 45.0,
        "Latitude(deg)": 44.51122563501296,
        "Longitude(deg)": -167.90371693567104,
        "Mean Anomaly(deg)": 98.6067079817493,
        "RAAN(deg)": 189.99960387584102,
        "Satellite Name": "Constellation 1 842",
        "Satellite Number": 842,
        "Semi-Major Axis(m)": 7083131.272910544,
        "Time(s)": 7
    },
    {
        "Altitude(m)": 707163.0697239507,
        "Argument of Periapsis(deg)": 0.0004795840499632449,
        "Eccentricity": 0.0,
        "Inclination(deg)": 45.0,
        "Latitude(deg)": 44.50218158823842,
        "Longitude(deg)": -167.82383290806075,
        "Mean Anomaly(deg)": 98.66740912199919,
        "RAAN(deg)": 189.99954728667547,
        "Satellite Name": "Constellation 1 842",
        "Satellite Number": 842,
        "Semi-Major Axis(m)": 7083131.272910544,
        "Time(s)": 8
    },
    {
        "Altitude(m)": 707161.0230155718,
        "Argument of Periapsis(deg)": 0.0005395320562086505,
        "Eccentricity": 0.0,
        "Inclination(deg)": 45.0,
        "Latitude(deg)": 44.49307580501787,
        "Longitude(deg)": -167.74397491746376,
        "Mean Anomaly(deg)": 98.72811026224907,
        "RAAN(deg)": 189.9994906975099,
        "Satellite Name": "Constellation 1 842",
        "Satellite Number": 842,
        "Semi-Major Axis(m)": 7083131.272910544,
        "Time(s)": 9
    },
    {
        "Altitude(m)": 707158.9625425406,
        "Argument of Periapsis(deg)": 0.0005994800624540561,
        "Eccentricity": 0.0,
        "Inclination(deg)": 45.0,
        "Latitude(deg)": 44.483908323805736,
        "Longitude(deg)": -167.66414312444056,
        "Mean Anomaly(deg)": 98.788811402499,
        "RAAN(deg)": 189.9994341083443,
        "Satellite Name": "Constellation 1 842",
        "Satellite Number": 842,
        "Semi-Major Axis(m)": 7083131.272910544,
        "Time(s)": 10
    },
    {
        "Altitude(m)": 707156.8883169881,
        "Argument of Periapsis(deg)": 0.0006594280686994618,
        "Eccentricity": 0.0,
        "Inclination(deg)": 45.0,
        "Latitude(deg)": 44.47467918328646,
        "Longitude(deg)": -167.58433768911848,
        "Mean Anomaly(deg)": 98.84951254274888,
        "RAAN(deg)": 189.99937751917875,
        "Satellite Name": "Constellation 1 842",
        "Satellite Number": 842,
        "Semi-Major Axis(m)": 7083131.272910544,
        "Time(s)": 11
    },
    {
        "Altitude(m)": 707154.8003511197,
        "Argument of Periapsis(deg)": 0.0007193760749448675,
        "Eccentricity": 0.0,
        "Inclination(deg)": 45.0,
        "Latitude(deg)": 44.46538842237406,
        "Longitude(deg)": -167.5045587711898,
        "Mean Anomaly(deg)": 98.91021368299879,
        "RAAN(deg)": 189.99932093001317,
        "Satellite Name": "Constellation 1 842",
        "Satellite Number": 842,
        "Semi-Major Axis(m)": 7083131.272910544,
        "Time(s)": 12
    },
    {
        "Altitude(m)": 707152.698657222,
        "Argument of Periapsis(deg)": 0.000779324081190273,
        "Eccentricity": 0.0,
        "Inclination(deg)": 45.0,
        "Latitude(deg)": 44.456036080211156,
        "Longitude(deg)": -167.42480652990943,
        "Mean Anomaly(deg)": 98.97091482324872,
        "RAAN(deg)": 189.99926434084762,
        "Satellite Name": "Constellation 1 842",
        "Satellite Number": 842,
        "Semi-Major Axis(m)": 7083131.272910544,
        "Time(s)": 13
    },
    {
        "Altitude(m)": 707150.5832476717,
        "Argument of Periapsis(deg)": 0.0008392720874356787,
        "Eccentricity": 0.0,
        "Inclination(deg)": 45.0,
        "Latitude(deg)": 44.446622196168214,
        "Longitude(deg)": -167.34508112409313,
        "Mean Anomaly(deg)": 99.0316159634986,
        "RAAN(deg)": 189.99920775168206,
        "Satellite Name": "Constellation 1 842",
        "Satellite Number": 842,
        "Semi-Major Axis(m)": 7083131.272910544,
        "Time(s)": 14
    },
    {
        "Altitude(m)": 707148.4541349133,
        "Argument of Periapsis(deg)": 0.0008992200936810842,
        "Eccentricity": 0.0,
        "Inclination(deg)": 45.0,
        "Latitude(deg)": 44.43714680984331,
        "Longitude(deg)": -167.26538288021192,
        "Mean Anomaly(deg)": 99.09231710374847,
        "RAAN(deg)": 189.99915116251645,
        "Satellite Name": "Constellation 1 842",
        "Satellite Number": 842,
        "Semi-Major Axis(m)": 7083131.272910544,
        "Time(s)": 15
    },
    {
        "Altitude(m)": 707146.3113314842,
        "Argument of Periapsis(deg)": 0.0009591680999264898,
        "Eccentricity": 0.0,
        "Inclination(deg)": 45.0,
        "Latitude(deg)": 44.42760996105985,
        "Longitude(deg)": -167.18571162000245,
        "Mean Anomaly(deg)": 99.15301824399836,
        "RAAN(deg)": 189.9990945733509,
        "Satellite Name": "Constellation 1 842",
        "Satellite Number": 842,
        "Semi-Major Axis(m)": 7083131.272910544,
        "Time(s)": 16
    },
    {
        "Altitude(m)": 707144.1548499997,
        "Argument of Periapsis(deg)": 0.0010191161061718953,
        "Eccentricity": 0.0,
        "Inclination(deg)": 45.0,
        "Latitude(deg)": 44.418011689867825,
        "Longitude(deg)": -167.10606766904652,
        "Mean Anomaly(deg)": 99.2137193842483,
        "RAAN(deg)": 189.99903798418535,
        "Satellite Name": "Constellation 1 842",
        "Satellite Number": 842,
        "Semi-Major Axis(m)": 7083131.272910544,
        "Time(s)": 17
    },
    {
        "Altitude(m)": 707141.9847031493,
        "Argument of Periapsis(deg)": 0.001079064112417301,
        "Eccentricity": 0.0,
        "Inclination(deg)": 45.0,
        "Latitude(deg)": 44.40835203654187,
        "Longitude(deg)": -167.02645118438207,
        "Mean Anomaly(deg)": 99.27442052449815,
        "RAAN(deg)": 189.99898139501977,
        "Satellite Name": "Constellation 1 842",
        "Satellite Number": 842,
        "Semi-Major Axis(m)": 7083131.272910544,
        "Time(s)": 18
    }
]